ONEWEB-0612             
1 54675U 22166AK  23339.18490514  .00000120  00000+0  25974-3 0  9998
2 54675  87.9251  68.1078 0001856  89.8440 270.2907 13.21826115 49701
ONEWEB-0615             
1 54676U 22166AL  23338.33330447  .00000055  00000+0  10114-3 0  9990
2 54676  87.9264  68.2969 0001584  93.2094 266.9221 13.21824979 49132
ONEWEB-0655             
1 54677U 22166AM  23338.68499636  .00000902  00000+0  21526-2 0  9994
2 54677  87.9259  68.2300 0001449  73.7181 286.4113 13.21821054 49178
ONEWEB-0659             
1 54678U 22166AN  23338.70234725  .00000007  00000+0 -14943-4 0  9998
2 54678  87.9233  68.2415 0001916 115.0047 245.1286 13.21834175 49269
ONEWEB-0685             
1 54679U 22166AP  23339.15808364 -.00000785  00000+0 -19324-2 0  9995
2 54679  87.9248  68.1292 0001739  72.0770 288.0553 13.21832035 49688
ONEWEB-0712             
1 54680U 22166AQ  23339.13213687 -.00001266  00000+0 -33443-2 0  9996
2 54680  87.9187  52.9094 0001375 116.2181 243.9091 13.16599500 50798
ONEWEB-0714             
1 54681U 22166AR  23338.33173575  .00000101  00000+0  21197-3 0  9998
2 54681  87.9254  68.2820 0001663  89.5218 270.6106 13.21825560 49228
ONEWEB-0532             
1 55140U 23004A   23339.05395461  .00000046  00000+0  86351-4 0  9993
2 55140  87.9214 189.7732 0002348  83.0004 277.1395 13.17651231 45752
